FM-6                    
1 39360U 13058A   26201.31442012 -.00000017  00000+0  00000+0 0  9993
2 39360   0.0094  30.1160 0001421 148.1432 116.6637  1.00266599 46400
RADUGA-1M 3             
1 39375U 13062A   26201.83933795  .00000149  00000+0  00000+0 0  9999
2 39375   6.0420  71.9223 0002001 284.5970 279.2165  1.00272248 46449
SES-8                   
1 39460U 13071A   26201.85103096 -.00000269  00000+0  00000+0 0  9993
2 39460   0.0626 261.0542 0002803 216.0221 222.9069  1.00271403 44764
INMARSAT 5-F1           
1 39476U 13073A   26201.48809573  .00000026  00000+0  00000+0 0  9994
2 39476   0.0162  64.7248 0000093 286.7459 185.1431  1.00272746 45915
TKSAT-1 (TUPAC KATARI)  
1 39481U 13075A   26201.81494094 -.00000195  00000+0  00000+0 0  9995
2 39481   0.0034 185.4516 0002677 282.9081  36.4006  1.00272906 45944
EXPRESS-AM5             
1 39487U 13077A   26201.64601931 -.00000281  00000+0  00000+0 0  9990
2 39487   0.0306 264.2978 0000147 208.1459 198.5707  1.00272414 46694
GSAT-14                 
1 39498U 14001A   26201.77559410 -.00000077  00000+0  00000+0 0  9991
2 39498   0.0245  92.7920 0002015 111.8775  87.0444  1.00271825 45713
THAICOM 6               
1 39500U 14002A   26201.84773763 -.00000122  00000+0  00000+0 0  9994
2 39500   0.0605 106.4624 0004527  20.1045 195.7473  1.00273053 45795
TDRS 12                 
1 39504U 14004A   26201.83794926 -.00000272  00000+0  00000+0 0  9999
2 39504   4.0109  19.6343 0004307 200.4027 339.3684  1.00271332 44612
ABS-2                   
1 39508U 14006A   26201.76899962 -.00000086  00000+0  00000+0 0  9996
2 39508   0.0188  58.2906 0003477  45.1932 186.8032  1.00272060 45611
ATHENA-FIDUS            
1 39509U 14006B   26201.83965034  .00000154  00000+0  00000+0 0  9994
2 39509   0.0366  99.8301 0001557  27.5956 151.2452  1.00273066 45425
TURKSAT 4A              
1 39522U 14007A   26201.84051699  .00000146  00000+0  00000+0 0  9995
2 39522   0.0812 279.3385 0001158 329.7344  34.1020  1.00270252 45309
EXPRESS-AT1             
1 39612U 14010A   26201.84539762 -.00000016  00000+0  00000+0 0  9998
2 39612   0.3426  85.4076 0004570  55.1338 169.0791  1.00310503 45150
EXPRESS-AT2             
1 39613U 14010B   26201.77201102  .00000077  00000+0  00000+0 0  9991
2 39613   0.0157  48.4177 0000287 326.2067 257.8451  1.00276165 44830
AMAZONAS 4A             
1 39616U 14011A   26201.81754095 -.00000253  00000+0  00000+0 0  9991
2 39616   0.0585 174.5259 0004826 323.6435  20.7275  1.00272225 45052
ASTRA 5B                
1 39617U 14011B   26201.83678102  .00000137  00000+0  00000+0 0  9998
2 39617   0.0651 309.2863 0002126 177.6358 136.3639  1.00271370 45000
IRNSS-1B                
1 39635U 14017A   26201.70039294  .00000132  00000+0  00000+0 0  9998
2 39635  28.8630 239.8244 0021631 191.1271 174.7813  1.00267485 45139
LUCH-5V                 
1 39727U 14023A   26201.86275083 -.00000272  00000+0  00000+0 0  9998
2 39727   5.2143  69.3956 0002194  80.0835 194.4836  1.00271957 44693
KAZSAT-3                
1 39728U 14023B   26201.84372367  .00000060  00000+0  00000+0 0  9994
2 39728   0.0105 347.4771 0000055 319.2476 354.1265  1.00272594 42790
EUTELSAT 3B             
1 39773U 14030A   26201.61891875  .00000019  00000+0  00000+0 0  9991
2 39773   0.0626  14.0167 0004350 102.7069  47.5630  1.00272855 44408
ASIASAT 8 (AMOS-7)      
1 40107U 14046A   26201.85302432 -.00000333  00000+0  00000+0 0  9993
2 40107   0.0189  75.1964 0001653  31.3545 244.4649  1.00271815102483
ASIASAT 6               
1 40141U 14052A   26201.53308740 -.00000363  00000+0  00000+0 0  9994
2 40141   0.0241  83.8370 0000908  60.1824 106.1008  1.00271577 43414
OPTUS 10                
1 40146U 14054A   26201.79180082 -.00000148  00000+0  00000+0 0  9997
2 40146   0.1097  20.7444 0002000  96.8236 262.0460  1.00270867 43368
MEASAT-3B               
1 40147U 14054B   26201.77897411 -.00000242  00000+0  00000+0 0  9992
2 40147   0.0237  12.9652 0002633  68.3510 229.1803  1.00271850 43244
HIMAWARI-8              
1 40267U 14060A   26201.60739126 -.00000277  00000+0  00000+0 0  9990
2 40267   0.0153  53.1610 0001276 108.7255 135.8056  1.00270174 43096
IRNSS-1C                
1 40269U 14061A   26201.70602685 -.00000167  00000+0  00000+0 0  9991
2 40269   6.5999  88.2929 0021939   6.0783 181.3257  1.00271443 43025
INTELSAT 30 (IS-30)     
1 40271U 14062A   26201.81338093 -.00000151  00000+0  00000+0 0  9999
2 40271   0.0150  52.5146 0001751 341.2520 102.5878  1.00272290  7131
ARSAT 1                 
1 40272U 14062B   26201.81797427 -.00000260  00000+0  00000+0 0  9991
2 40272   0.0515 273.0588 0002025 196.7131  51.4781  1.00272326 42968
EUTELSAT 53A            
1 40277U 14064A   26201.41485976  .00000096  00000+0  00000+0 0  9993
2 40277   0.0147  23.4268 0001765 178.1359 298.9992  1.00273574 41903
GSAT-16                 
1 40332U 14078A   26201.84311700  .00000085  00000+0  00000+0 0  9998
2 40332   0.0173  65.1799 0007569  30.8534 201.1673  1.00271820 42447
DIRECTV 14              
1 40333U 14078B   26201.44975230 -.00000127  00000+0  00000+0 0  9997
2 40333   0.0151  57.4012 0000485 335.1034 328.3806  1.00274313 42374
YAMAL 401               
1 40345U 14082A   26201.13716819 -.00000231  00000+0  00000+0 0  9993
2 40345   0.0175 145.8925 0000391 268.5759  22.7631  1.00273803 42247
