OBJECT_NAME,OBJECT_ID,EPOCH,MEAN_MOTION,ECCENTRICITY,INCLINATION,RA_OF_ASC_NODE,ARG_OF_PERICENTER,MEAN_ANOMALY,EPHEMERIS_TYPE,CLASSIFICATION_TYPE,NORAD_CAT_ID,ELEMENT_SET_NO,REV_AT_EPOCH,BSTAR,MEAN_MOTION_DOT,MEAN_MOTION_DDOT
FM-6,2013-058A,2026-07-20T07:32:45.898368,1.00266599,.00014211,0.0094,30.1160,148.1432,116.6637,0,U,39360,999,4640,0,-.17E-6,0
RADUGA-1M 3,2013-062A,2026-07-20T20:08:38.798880,1.00272248,.0002001,6.0420,71.9223,284.5970,279.2165,0,U,39375,999,4644,0,.149E-5,0
SES-8,2013-071A,2026-07-20T20:25:29.074944,1.00271403,.0002803,0.0626,261.0542,216.0221,222.9069,0,U,39460,999,4476,0,-.269E-5,0
INMARSAT 5-F1,2013-073A,2026-07-20T11:42:51.471072,1.00272746,.00000932,0.0162,64.7248,286.7459,185.1431,0,U,39476,999,4591,0,.26E-6,0
TKSAT-1 (TUPAC KATARI),2013-075A,2026-07-20T19:33:30.897216,1.00272906,.0002677,0.0034,185.4516,282.9081,36.4006,0,U,39481,999,4594,0,-.195E-5,0
EXPRESS-AM5,2013-077A,2026-07-20T15:30:16.068384,1.00272414,.0000147,0.0306,264.2978,208.1459,198.5707,0,U,39487,999,4669,0,-.281E-5,0
GSAT-14,2014-001A,2026-07-20T18:36:51.330240,1.00271825,.0002015,0.0245,92.7920,111.8775,87.0444,0,U,39498,999,4571,0,-.77E-6,0
THAICOM 6,2014-002A,2026-07-20T20:20:44.531232,1.00273053,.0004527,0.0605,106.4624,20.1045,195.7473,0,U,39500,999,4579,0,-.122E-5,0
TDRS 12,2014-004A,2026-07-20T20:06:38.816064,1.00271332,.0004307,4.0109,19.6343,200.4027,339.3684,0,U,39504,999,4461,0,-.272E-5,0
ABS-2,2014-006A,2026-07-20T18:27:21.567168,1.00272060,.0003477,0.0188,58.2906,45.1932,186.8032,0,U,39508,999,4561,0,-.86E-6,0
ATHENA-FIDUS,2014-006B,2026-07-20T20:09:05.789376,1.00273066,.0001557,0.0366,99.8301,27.5956,151.2452,0,U,39509,999,4542,0,.154E-5,0
TURKSAT 4A,2014-007A,2026-07-20T20:10:20.667936,1.00270252,.0001158,0.0812,279.3385,329.7344,34.1020,0,U,39522,999,4530,0,.146E-5,0
EXPRESS-AT1,2014-010A,2026-07-20T20:17:22.354368,1.00310503,.000457,0.3426,85.4076,55.1338,169.0791,0,U,39612,999,4515,0,-.16E-6,0
EXPRESS-AT2,2014-010B,2026-07-20T18:31:41.752128,1.00276165,.0000287,0.0157,48.4177,326.2067,257.8451,0,U,39613,999,4483,0,.77E-6,0
AMAZONAS 4A,2014-011A,2026-07-20T19:37:15.538080,1.00272225,.0004826,0.0585,174.5259,323.6435,20.7275,0,U,39616,999,4505,0,-.253E-5,0
ASTRA 5B,2014-011B,2026-07-20T20:04:57.880128,1.00271370,.0002126,0.0651,309.2863,177.6358,136.3639,0,U,39617,999,4500,0,.137E-5,0
IRNSS-1B,2014-017A,2026-07-20T16:48:33.950016,1.00267485,.0021631,28.8630,239.8244,191.1271,174.7813,0,U,39635,999,4513,0,.132E-5,0
LUCH-5V,2014-023A,2026-07-20T20:42:21.671712,1.00271957,.0002194,5.2143,69.3956,80.0835,194.4836,0,U,39727,999,4469,0,-.272E-5,0
KAZSAT-3,2014-023B,2026-07-20T20:14:57.725088,1.00272594,.0000055,0.0105,347.4771,319.2476,354.1265,0,U,39728,999,4279,0,.6E-6,0
EUTELSAT 3B,2014-030A,2026-07-20T14:51:14.580000,1.00272855,.000435,0.0626,14.0167,102.7069,47.5630,0,U,39773,999,4440,0,.19E-6,0
ASIASAT 8 (AMOS-7),2014-046A,2026-07-20T20:28:21.301248,1.00271815,.0001653,0.0189,75.1964,31.3545,244.4649,0,U,40107,999,10248,0,-.333E-5,0
ASIASAT 6,2014-052A,2026-07-20T12:47:38.751360,1.00271577,.00009081,0.0241,83.8370,60.1824,106.1008,0,U,40141,999,4341,0,-.363E-5,0
OPTUS 10,2014-054A,2026-07-20T19:00:11.590848,1.00270867,.0002,0.1097,20.7444,96.8236,262.0460,0,U,40146,999,4336,0,-.148E-5,0
MEASAT-3B,2014-054B,2026-07-20T18:41:43.363104,1.00271850,.0002633,0.0237,12.9652,68.3510,229.1803,0,U,40147,999,4324,0,-.242E-5,0
HIMAWARI-8,2014-060A,2026-07-20T14:34:38.604864,1.00270174,.0001276,0.0153,53.1610,108.7255,135.8056,0,U,40267,999,4309,0,-.277E-5,0
IRNSS-1C,2014-061A,2026-07-20T16:56:40.719840,1.00271443,.0021939,6.5999,88.2929,6.0783,181.3257,0,U,40269,999,4302,0,-.167E-5,0
INTELSAT 30 (IS-30),2014-062A,2026-07-20T19:31:16.112352,1.00272290,.0001751,0.0150,52.5146,341.2520,102.5878,0,U,40271,999,713,0,-.151E-5,0
ARSAT 1,2014-062B,2026-07-20T19:37:52.976928,1.00272326,.0002025,0.0515,273.0588,196.7131,51.4781,0,U,40272,999,4296,0,-.26E-5,0
EUTELSAT 53A,2014-064A,2026-07-20T09:57:23.883264,1.00273574,.00017651,0.0147,23.4268,178.1359,298.9992,0,U,40277,999,4190,0,.96E-6,0
GSAT-16,2014-078A,2026-07-20T20:14:05.308800,1.00271820,.0007569,0.0173,65.1799,30.8534,201.1673,0,U,40332,999,4244,0,.85E-6,0
DIRECTV 14,2014-078B,2026-07-20T10:47:38.598720,1.00274313,.0000485,0.0151,57.4012,335.1034,328.3806,0,U,40333,999,4237,0,-.127E-5,0
YAMAL 401,2014-082A,2026-07-20T03:17:31.331616,1.00273803,.00003916,0.0175,145.8925,268.5759,22.7631,0,U,40345,999,4224,0,-.231E-5,0
